[{"OBJECT_NAME":"HAIYANG-1D","OBJECT_ID":"2020-036A","EPOCH":"2026-03-09T23:25:01.064928","MEAN_MOTION":14.34203306,"ECCENTRICITY":0.00036798,"INCLINATION":98.4473,"RA_OF_ASC_NODE":12.8565,"ARG_OF_PERICENTER":84.5476,"MEAN_ANOMALY":275.6129,"EPHEMERIS_TYPE":0,"CLASSIFICATION_TYPE":"U","NORAD_CAT_ID":45721,"ELEMENT_SET_NO":999,"REV_AT_EPOCH":30075,"BSTAR":9.1285055e-5,"MEAN_MOTION_DOT":2.13e-6,"MEAN_MOTION_DDOT":0},{"OBJECT_NAME":"NOAA 16 DEB","OBJECT_ID":"2000-055MH","EPOCH":"2026-03-08T16:52:13.701504","MEAN_MOTION":14.31351969,"ECCENTRICITY":0.00157096,"INCLINATION":98.7568,"RA_OF_ASC_NODE":166.6814,"ARG_OF_PERICENTER":259.9354,"MEAN_ANOMALY":100.0056,"EPHEMERIS_TYPE":0,"CLASSIFICATION_TYPE":"U","NORAD_CAT_ID":41509,"ELEMENT_SET_NO":999,"REV_AT_EPOCH":51540,"BSTAR":0.002351783,"MEAN_MOTION_DOT":6.198e-5,"MEAN_MOTION_DDOT":0}]
